ONEWEB-0012             
1 44057U 19010A   24202.89303554  .00000050  00000+0  98025-4 0  9990
2 44057  87.9112   7.4252 0002008  67.0293 293.1049 13.16593379259941
ONEWEB-0010             
1 44058U 19010B   24202.91836874  .00000053  00000+0  10379-3 0  9998
2 44058  87.9114   7.4000 0001309  78.5902 281.5375 13.16594247259995
ONEWEB-0008             
1 44059U 19010C   24202.94369332 -.00000077  00000+0 -23387-3 0  9993
2 44059  87.9115   7.3962 0002006  98.5004 261.6354 13.16592637260116
ONEWEB-0007             
1 44060U 19010D   24202.80602585 -.00000071  00000+0 -22281-3 0  9996
2 44060  87.9024  37.7816 0001866  74.8492 285.2844 13.15548299259818
ONEWEB-0006             
1 44061U 19010E   24202.80998671 -.00000085  00000+0 -26047-3 0  9990
2 44061  87.9014  37.7610 0001722  77.1317 283.0005 13.15548208259863
ONEWEB-0011             
1 44062U 19010F   24202.93198890  .00000061  00000+0  12719-3 0  9993
2 44062  87.9017  37.7382 0001525  87.1102 273.0203 13.15546997259870
ONEWEB-0013             
1 45131U 20008A   24202.89705297  .00000564  00000+0  16033-2 0  9990
2 45131  87.8626 192.8757 0002957  79.1027 281.0432 13.09379290214944
ONEWEB-0017             
1 45132U 20008B   24202.92476954  .00000380  00000+0  10520-2 0  9991
2 45132  87.8954 174.7465 0001790  80.4480 279.6850 13.10370986216760
